[{"OBJECT_NAME":"JILIN-1 GAOFEN 03D47","OBJECT_ID":"2022-167L","EPOCH":"2026-03-09T22:56:46.924224","MEAN_MOTION":15.31686941,"ECCENTRICITY":0.00089304,"INCLINATION":97.6835,"RA_OF_ASC_NODE":234.6581,"ARG_OF_PERICENTER":110.4031,"MEAN_ANOMALY":249.8169,"EPHEMERIS_TYPE":0,"CLASSIFICATION_TYPE":"U","NORAD_CAT_ID":54692,"ELEMENT_SET_NO":999,"REV_AT_EPOCH":18014,"BSTAR":0.00047294748,"MEAN_MOTION_DOT":0.00014417,"MEAN_MOTION_DDOT":0},{"OBJECT_NAME":"STARLINK-32550","OBJECT_ID":"2024-222T","EPOCH":"2026-03-09T13:01:26.213664","MEAN_MOTION":15.27589967,"ECCENTRICITY":0.00016256,"INCLINATION":42.9979,"RA_OF_ASC_NODE":137.2508,"ARG_OF_PERICENTER":252.2152,"MEAN_ANOMALY":107.8523,"EPHEMERIS_TYPE":0,"CLASSIFICATION_TYPE":"U","NORAD_CAT_ID":62131,"ELEMENT_SET_NO":999,"REV_AT_EPOCH":7277,"BSTAR":0.00085031734,"MEAN_MOTION_DOT":0.00023218,"MEAN_MOTION_DDOT":0}]
